{
"type": "FeatureCollection",
"name": "Ports",
"crs": { "type": "name", "properties": { "name": "urn:ogc:def:crs:ESRI::102319" } },
"features": [
{ "type": "Feature", "properties": { "NAME": "Kato Pyrgou", "CLASS": 20, "GLOBALID": "{7C1193D0-DC2B-47CD-91B6-FA4DD98C15A9}" }, "geometry": { "type": "Point", "coordinates": [ 170064.947237213142216, 395544.607258163392544 ] } },
{ "type": "Feature", "properties": { "NAME": "Pomou", "CLASS": 20, "GLOBALID": "{5E7B737C-84B7-4CAD-9791-27AE72ACC9A8}" }, "geometry": { "type": "Point", "coordinates": [ 159526.451735567301512, 393907.190672943368554 ] } },
{ "type": "Feature", "properties": { "NAME": "Latsiou", "CLASS": 40, "GLOBALID": "{252610B9-1279-4C91-87B5-AF09866FA61D}" }, "geometry": { "type": "Point", "coordinates": [ 144892.272455445490777, 379160.615189030766487 ] } },
{ "type": "Feature", "properties": { "NAME": "Agiou Georgiou Pegeias", "CLASS": 20, "GLOBALID": "{D77FFB3C-AB33-467C-84F6-585351CDC58F}" }, "geometry": { "type": "Point", "coordinates": [ 137694.641087175346911, 363937.300996121019125 ] } },
{ "type": "Feature", "properties": { "NAME": "Pegeia", "CLASS": 50, "GLOBALID": "{044BC583-7A66-4FCA-A71F-AF6AEF28D17A}" }, "geometry": { "type": "Point", "coordinates": [ 141604.771834005601704, 358654.171890128403902 ] } },
{ "type": "Feature", "properties": { "NAME": "Pafos", "CLASS": 10, "GLOBALID": "{41871A0C-1B8D-4869-98FA-7E4CD528D8AA}" }, "geometry": { "type": "Point", "coordinates": [ 145831.361736166290939, 347333.226779442280531 ] } },
{ "type": "Feature", "properties": { "NAME": "Sotira Lemesou", "CLASS": 60, "GLOBALID": "{8CC58215-F67F-477E-AC09-8B82EC6BB31B}" }, "geometry": { "type": "Point", "coordinates": [ 184246.259381241165102, 337467.245440693572164 ] } },
{ "type": "Feature", "properties": { "NAME": "Akrotiri", "CLASS": 15, "GLOBALID": "{A38D4241-217C-4537-B093-AEC6B7755036}" }, "geometry": { "type": "Point", "coordinates": [ 202981.825111448764801, 326819.546293050050735 ] } },
{ "type": "Feature", "properties": { "NAME": "Lemesos", "CLASS": 10, "GLOBALID": "{C0B277A9-7897-4F0C-B3D4-F17496AFFE8F}" }, "geometry": { "type": "Point", "coordinates": [ 201747.778474143706262, 335384.093550428748131 ] } },
{ "type": "Feature", "properties": { "NAME": "Lemesou (Palio Limani)", "CLASS": 20, "GLOBALID": "{8C6E7D51-40AB-417D-A1D0-E5B6CEDC2369}" }, "geometry": { "type": "Point", "coordinates": [ 203909.561659377999604, 337754.4773362390697 ] } },
{ "type": "Feature", "properties": { "NAME": "Limassol Sheraton Marina", "CLASS": 40, "GLOBALID": "{94993CF5-C2CA-402A-81F4-1E3A134AD9D3}" }, "geometry": { "type": "Point", "coordinates": [ 215233.990312307141721, 342201.184504758566618 ] } },
{ "type": "Feature", "properties": { "NAME": "Florakis", "CLASS": 15, "GLOBALID": "{7C8A404E-8B34-41A9-9623-E547A188E817}" }, "geometry": { "type": "Point", "coordinates": [ 225707.418787873350084, 343408.516979157924652 ] } },
{ "type": "Feature", "properties": { "NAME": "Archi Rodhon", "CLASS": 50, "GLOBALID": "{1DA82AD4-ACAC-424E-A78F-61B74A794AC6}" }, "geometry": { "type": "Point", "coordinates": [ 227904.896111581474543, 343616.67269622720778 ] } },
{ "type": "Feature", "properties": { "NAME": "Zygiou", "CLASS": 10, "GLOBALID": "{423362DB-6FA3-423D-B51E-24BB0CFA8045}" }, "geometry": { "type": "Point", "coordinates": [ 228968.429789867252111, 343083.697919048368931 ] } },
{ "type": "Feature", "properties": { "NAME": "Zygiou", "CLASS": 20, "GLOBALID": "{0ACB16B9-A605-486B-9D48-6253AF311D05}" }, "geometry": { "type": "Point", "coordinates": [ 231073.521989472210407, 344156.982559679076076 ] } },
{ "type": "Feature", "properties": { "NAME": "Alaminos", "CLASS": 50, "GLOBALID": "{531DC31A-3CA2-433E-8692-C1CCBC494CCC}" }, "geometry": { "type": "Point", "coordinates": [ 243040.618830656632781, 349375.056029476225376 ] } },
{ "type": "Feature", "properties": { "NAME": "Larnakas", "CLASS": 20, "GLOBALID": "{B7205393-41E7-474E-945D-C6A1F2073C4C}" }, "geometry": { "type": "Point", "coordinates": [ 258461.921369506046176, 363442.623353036120534 ] } },
{ "type": "Feature", "properties": { "NAME": "Larnaka (Marina)", "CLASS": 40, "GLOBALID": "{148AF887-A1EA-45B5-A1BF-59AD9D20FAF6}" }, "geometry": { "type": "Point", "coordinates": [ 258544.843261470086873, 365387.391795367002487 ] } },
{ "type": "Feature", "properties": { "NAME": "Larnaka", "CLASS": 10, "GLOBALID": "{A1A7C550-1BF0-4CD9-8DC3-6D725C8C860A}" }, "geometry": { "type": "Point", "coordinates": [ 258697.084945812821388, 366426.527389731258154 ] } },
{ "type": "Feature", "properties": { "NAME": "Ormideias", "CLASS": 20, "GLOBALID": "{42BAA68D-8BB5-4F65-85BC-AE1C4CEB773B}" }, "geometry": { "type": "Point", "coordinates": [ 270229.278669856488705, 372422.254784394055605 ] } },
{ "type": "Feature", "properties": { "NAME": "Xylofagou", "CLASS": 20, "GLOBALID": "{9ED8C3CA-F314-477D-8BE3-B573F8FCFB22}" }, "geometry": { "type": "Point", "coordinates": [ 274758.393151585012674, 371127.622498583048582 ] } },
{ "type": "Feature", "properties": { "NAME": "Potamos Liopetriou", "CLASS": 20, "GLOBALID": "{5C1EC34F-762E-4A2A-AFF4-E6708621E1F1}" }, "geometry": { "type": "Point", "coordinates": [ 282216.094928304664791, 371527.17168227955699 ] } },
{ "type": "Feature", "properties": { "NAME": "Agias Napas", "CLASS": 20, "GLOBALID": "{7BEDF09E-81FD-4C20-AE06-866CA49881F1}" }, "geometry": { "type": "Point", "coordinates": [ 291610.66354987770319, 372818.308764772489667 ] } },
{ "type": "Feature", "properties": { "NAME": "Paralimni", "CLASS": 60, "GLOBALID": "{6BCB8D37-2D31-4A2B-AF97-062F8151D7AA}" }, "geometry": { "type": "Point", "coordinates": [ 297523.228644633665681, 374916.156183626502752 ] } },
{ "type": "Feature", "properties": { "NAME": "Paralimniou", "CLASS": 20, "GLOBALID": "{F5AA21B4-8755-4AE6-8C40-F96D9B6A7991}" }, "geometry": { "type": "Point", "coordinates": [ 294638.388272764161229, 379143.476665586233139 ] } },
{ "type": "Feature", "properties": { "NAME": "Galinis", "CLASS": 60, "GLOBALID": "{D9FA52D1-15CC-4E16-83FD-C531DD11BE3A}" }, "geometry": { "type": "Point", "coordinates": [ 180628.722318563610315, 391963.596744757145643 ] } },
{ "type": "Feature", "properties": { "NAME": "Keryneia", "CLASS": 60, "GLOBALID": "{B646DF40-4B34-4534-8A10-4BE69CA3FF83}" }, "geometry": { "type": "Point", "coordinates": [ 226614.962424732744694, 413057.240438632667065 ] } },
{ "type": "Feature", "properties": { "NAME": "Agios Amvrosios", "CLASS": 30, "GLOBALID": "{3AEF224D-A575-4723-8C4E-D00DA680C1E0}" }, "geometry": { "type": "Point", "coordinates": [ 241866.815874106250703, 411805.039679763838649 ] } },
{ "type": "Feature", "properties": { "NAME": "Kalograia", "CLASS": 60, "GLOBALID": "{D1CCCC85-0D3B-4C51-814B-AAC0D2702E34}" }, "geometry": { "type": "Point", "coordinates": [ 255188.639121812768281, 414346.719479219987988 ] } },
{ "type": "Feature", "properties": { "NAME": "Dhavlos", "CLASS": 30, "GLOBALID": "{EC35F933-6BE4-4480-A70A-89CB513E6930}" }, "geometry": { "type": "Point", "coordinates": [ 282551.396072930656374, 422362.793443899601698 ] } },
{ "type": "Feature", "properties": { "NAME": "Platanissos", "CLASS": 60, "GLOBALID": "{80E8C647-4F5B-4617-B87B-1D062C533F5F}" }, "geometry": { "type": "Point", "coordinates": [ 298163.619398161768913, 429861.17121365852654 ] } },
{ "type": "Feature", "properties": { "NAME": "Aigialousa", "CLASS": 60, "GLOBALID": "{9960ACA9-87FA-41C0-88AE-737779840BC3}" }, "geometry": { "type": "Point", "coordinates": [ 310426.092309816740453, 436885.825882200151682 ] } },
{ "type": "Feature", "properties": { "NAME": "Koma tou Gialou", "CLASS": 30, "GLOBALID": "{19AB1908-8456-4240-AA09-A70548B9BB7B}" }, "geometry": { "type": "Point", "coordinates": [ 302604.871625085361302, 420515.723236074671149 ] } },
{ "type": "Feature", "properties": { "NAME": "Keryneias (old port)", "CLASS": 60, "GLOBALID": "{E8223EF9-8D7B-418C-8FA0-0EF0D82EE564}" }, "geometry": { "type": "Point", "coordinates": [ 229098.292925463989377, 412429.877409033477306 ] } },
{ "type": "Feature", "properties": { "NAME": "Keryneia", "CLASS": 10, "GLOBALID": "{0A8D466D-DF62-42C1-888F-966511B8D4C2}" }, "geometry": { "type": "Point", "coordinates": [ 230310.055116171948612, 412422.961443433538079 ] } },
{ "type": "Feature", "properties": { "NAME": "Ammochostos", "CLASS": 10, "GLOBALID": "{ACA0AB9D-C59D-4126-B40E-82E57D213619}" }, "geometry": { "type": "Point", "coordinates": [ 286243.471800650469959, 389305.269059961661696 ] } },
{ "type": "Feature", "properties": { "NAME": "Boghazi", "CLASS": 30, "GLOBALID": "{D4280A48-171A-4093-90C2-85345C874FAF}" }, "geometry": { "type": "Point", "coordinates": [ 287802.934924676083028, 410322.27455323562026 ] } },
{ "type": "Feature", "properties": { "NAME": "Akanthou", "CLASS": 30, "GLOBALID": "{92AF77F9-B308-43A2-A47F-E8C85A4D4D32}" }, "geometry": { "type": "Point", "coordinates": [ 266955.774048208259046, 419108.832374257966876 ] } },
{ "type": "Feature", "properties": { "NAME": "Ayias Triadas", "CLASS": 20, "GLOBALID": "{3AD2C804-7D37-4E14-9114-9C1C7312CB77}" }, "geometry": { "type": "Point", "coordinates": [ 293393.7795505579561, 380546.439779626205564 ] } },
{ "type": "Feature", "properties": { "NAME": "Xylotymvou", "CLASS": 20, "GLOBALID": "{8AE92F3F-DE94-4453-95AC-2EE03A4F8194}" }, "geometry": { "type": "Point", "coordinates": [ 267380.901660515926778, 372573.153546994552016 ] } },
{ "type": "Feature", "properties": { "NAME": "Karavostasi", "CLASS": 10, "GLOBALID": "{DDBAF7CF-7996-4889-8A2E-D031E02B5FB0}" }, "geometry": { "type": "Point", "coordinates": [ 183131.228505117818713, 390676.417783075943589 ] } },
{ "type": "Feature", "properties": { "NAME": "Moni", "CLASS": 30, "GLOBALID": "{36805C2C-D48C-440F-A699-2982070B156F}" }, "geometry": { "type": "Point", "coordinates": [ 218574.996141282841563, 341879.470544390380383 ] } },
{ "type": "Feature", "properties": { "NAME": "Marina Lemesou", "CLASS": 40, "GLOBALID": "{A21605FD-83FE-4886-A609-DAC1AB87D95F}" }, "geometry": { "type": "Point", "coordinates": [ 203681.745237194932997, 337527.055899014696479 ] } },
{ "type": "Feature", "properties": { "NAME": "Avdimou", "CLASS": 30, "GLOBALID": "{0FF37194-B9A6-4343-8F2D-F4E683D9DF36}" }, "geometry": { "type": "Point", "coordinates": [ 178642.401268787682056, 336456.28679595887661 ] } },
{ "type": "Feature", "properties": { "NAME": "Akrotiriou", "CLASS": 20, "GLOBALID": "{9F59F5D9-9D2F-4CC8-8BE5-D93DE32A52F2}" }, "geometry": { "type": "Point", "coordinates": [ 194210.647296903654933, 328595.457648763433099 ] } },
{ "type": "Feature", "properties": { "NAME": "Bogazi", "CLASS": 60, "GLOBALID": "{F6DE775D-6E1C-4410-AF22-DFBA7013EC7B}" }, "geometry": { "type": "Point", "coordinates": [ 286698.600100204348564, 409562.038475194945931 ] } },
{ "type": "Feature", "properties": { "NAME": "Orgas", "CLASS": 60, "GLOBALID": "{37B3A8A3-96A5-4BB7-A95F-C2605A334468}" }, "geometry": { "type": "Point", "coordinates": [ 204267.624947824515402, 414262.574801689013839 ] } },
{ "type": "Feature", "properties": { "NAME": "Lapithou", "CLASS": 60, "GLOBALID": "{DEDE5508-29C6-402C-B551-446092F6A861}" }, "geometry": { "type": "Point", "coordinates": [ 214767.313346811570227, 413570.057423554360867 ] } },
{ "type": "Feature", "properties": { "NAME": "Karavas", "CLASS": 60, "GLOBALID": "{50CA821A-226C-457B-B74C-72B39A8A6568}" }, "geometry": { "type": "Point", "coordinates": [ 217565.450791508890688, 413985.790549812838435 ] } },
{ "type": "Feature", "properties": { "NAME": "Rizokarpaso (Chelones)", "CLASS": 60, "GLOBALID": "{D2F21CE3-61AF-4F9A-B77D-35422B24FC20}" }, "geometry": { "type": "Point", "coordinates": [ 328875.469539346173406, 440000.767704229801893 ] } },
{ "type": "Feature", "properties": { "NAME": "Mari (EAC)", "CLASS": 50, "GLOBALID": "{78C450A0-515E-49FB-8FDB-991399E01333}" }, "geometry": { "type": "Point", "coordinates": [ 227105.91327016055584, 343764.292120961472392 ] } },
{ "type": "Feature", "properties": { "NAME": "Aigialousa", "CLASS": 40, "GLOBALID": "{03D42022-B1A5-40FA-BEA2-14941E0E8DDA}" }, "geometry": { "type": "Point", "coordinates": [ 311605.858684997074306, 437099.818915590643883 ] } },
{ "type": "Feature", "properties": { "NAME": "Karava", "CLASS": 60, "GLOBALID": "{AD407BA7-DA75-4ED8-9E1B-0C860E09BFD1}" }, "geometry": { "type": "Point", "coordinates": [ 222193.873685009777546, 412731.981376396492124 ] } },
{ "type": "Feature", "properties": { "NAME": "Gastria", "CLASS": 30, "GLOBALID": "{4AD354EC-B803-4BED-BC10-A878D9D8F8C7}" }, "geometry": { "type": "Point", "coordinates": [ 291448.811107258312404, 410692.741155816242099 ] } },
{ "type": "Feature", "properties": { "NAME": "Pyla", "CLASS": 60, "GLOBALID": "{D7FCCDF5-EF34-4A0C-A7D4-228745C6280F}" }, "geometry": { "type": "Point", "coordinates": [ 266769.258842423558235, 372404.237341452389956 ] } },
{ "type": "Feature", "properties": { "NAME": "Pafos", "CLASS": 50, "GLOBALID": "{7C72EF21-BB8F-4C70-9016-DCF030A071EC}" }, "geometry": { "type": "Point", "coordinates": [ 147205.805661633610725, 346329.873052790760994 ] } },
{ "type": "Feature", "properties": { "NAME": "Xylofagou", "CLASS": 60, "GLOBALID": "{F28978C5-203C-4F4C-907D-B0B285C60FFD}" }, "geometry": { "type": "Point", "coordinates": [ 281803.427443964406848, 370198.435638561844826 ] } },
{ "type": "Feature", "properties": { "NAME": "Paralimni", "CLASS": 60, "GLOBALID": "{EFB6FC11-C51E-4A7C-A928-C8BE3187DB77}" }, "geometry": { "type": "Point", "coordinates": [ 295408.720941931940615, 378122.543735399842262 ] } },
{ "type": "Feature", "properties": { "NAME": "Pafou", "CLASS": 20, "GLOBALID": "{554DF9A8-C75F-454F-A772-19283073B097}" }, "geometry": { "type": "Point", "coordinates": [ 145784.776019673794508, 347222.6524149607867 ] } },
{ "type": "Feature", "properties": { "NAME": "Latsiou", "CLASS": 20, "GLOBALID": "{A97A6A19-C6B7-4B56-A795-F8D1E623EE5F}" }, "geometry": { "type": "Point", "coordinates": [ 144673.231397674418986, 379212.580863710492849 ] } },
{ "type": "Feature", "properties": { "NAME": "Marina Agias Napas", "CLASS": 40, "GLOBALID": "{48BD8354-4ABF-48B1-9205-8407CD4945A9}" }, "geometry": { "type": "Point", "coordinates": [ 286302.4400854120031, 372391.107786521315575 ] } }
]
}
